OBJECT_NAME,OBJECT_ID,EPOCH,MEAN_MOTION,ECCENTRICITY,INCLINATION,RA_OF_ASC_NODE,ARG_OF_PERICENTER,MEAN_ANOMALY,EPHEMERIS_TYPE,CLASSIFICATION_TYPE,NORAD_CAT_ID,ELEMENT_SET_NO,REV_AT_EPOCH,BSTAR,MEAN_MOTION_DOT,MEAN_MOTION_DDOT
GSAT-10,2012-051B,2026-07-07T14:08:29.162688,1.00269278,.00078203,0.0400,241.9553,213.1322,125.5712,0,U,38779,999,5030,0,-.149E-5,0
INTELSAT 23 (IS-23),2012-057A,2026-07-07T01:21:10.850112,1.00275567,.00004045,0.0130,52.9192,98.8720,100.5402,0,U,38867,999,5015,0,-.27E-5,0
BEIDOU-2 G6,2012-059A,2026-07-07T14:08:44.139264,1.00268990,.00090843,4.4698,73.3075,330.2599,178.1470,0,U,38953,999,5011,0,-.162E-5,0
LUCH-5B,2012-061A,2026-07-07T10:14:43.874880,1.00271756,.00034872,10.5244,49.6770,139.6998,233.4586,0,U,38977,999,4981,0,-.129E-5,0
YAMAL 300K,2012-061B,2026-07-07T14:58:39.658368,1.00271742,.00003197,0.0240,242.4904,15.3959,75.3223,0,U,38978,999,4983,0,.86E-6,0
STAR ONE C3,2012-062A,2026-07-07T13:23:22.966944,1.00271005,.00022103,0.0230,32.5953,92.0416,286.7443,0,U,38991,999,4996,0,0,0
EUTELSAT 21B,2012-062B,2026-07-07T13:50:57.823296,1.00270555,.00032093,0.0647,357.6983,108.8657,48.3001,0,U,38992,999,5003,0,.145E-5,0
ECHOSTAR 16,2012-065A,2026-07-07T11:07:34.766112,1.00270487,.00019624,0.0171,26.7817,81.3955,282.6582,0,U,39008,999,4984,0,-.267E-5,0
ZHONGXING-12,2012-067A,2026-07-07T15:52:26.097024,1.00270221,.0002803,0.0482,93.6805,7.5505,150.0050,0,U,39017,999,4971,0,-.191E-5,0
EUTELSAT 70B,2012-069A,2026-07-07T12:22:15.547008,1.00273777,.00034483,0.0631,343.6476,124.4042,73.4878,0,U,39020,999,4971,0,-.29E-6,0
YAMAL 402,2012-070A,2026-07-07T15:55:54.720192,1.00272140,.0003728,1.3141,83.9111,20.8542,114.7365,0,U,39022,999,4960,0,.1E-5,0
SKYNET 5D,2012-075A,2026-07-07T10:34:34.472928,1.00272144,.00036877,0.0667,6.5395,109.3321,20.9384,0,U,39034,999,4936,0,.114E-5,0
MEXSAT 3,2012-075B,2026-07-07T13:12:01.556064,1.00267639,.00011342,0.0198,30.0377,77.4373,261.2436,0,U,39035,999,725,0,0,0
TDRS 11,2013-004A,2026-07-07T15:09:59.090688,1.00276736,.00048051,3.5507,31.5882,28.1571,279.0220,0,U,39070,999,4689,0,.93E-6,0
AMAZONAS 3,2013-006A,2026-07-07T11:08:41.726976,1.00269034,.00032575,0.0597,238.4121,272.7993,240.3816,0,U,39078,999,4511,0,-.267E-5,0
AZERSPACE 1,2013-006B,2026-07-07T13:57:57.152736,1.00272399,.00018698,0.0343,273.1811,229.4374,38.4076,0,U,39079,999,4901,0,.148E-5,0
SBIRS GEO-2 (USA 241),2013-011A,2026-07-06T22:06:40.978368,1.00271262,.00020102,4.5312,52.5131,45.1363,109.1078,0,U,39120,999,4873,0,-.274E-5,0
EUTELSAT 117 WEST A,2013-012A,2026-07-07T13:11:31.603776,1.00271681,.00027624,0.0100,7.6014,103.4608,255.5219,0,U,39122,999,4863,0,.2E-7,0
ANIK G1,2013-014A,2026-07-07T13:14:08.852640,1.00271467,.00017162,0.0193,40.2284,74.0038,262.5160,0,U,39127,999,4845,0,-.59E-6,0
ZHONGXING-11,2013-020A,2026-07-07T16:14:31.078176,1.00272605,.00025063,0.0176,29.1323,52.3211,185.7332,0,U,39157,999,4810,0,-.275E-5,0
EUTELSAT 7B,2013-022A,2026-07-07T13:46:50.717568,1.00271308,.00038567,0.0640,355.7371,51.2229,92.2816,0,U,39163,999,4815,0,.63E-6,0
WGS F5 (USA 243),2013-024A,2026-07-07T01:31:13.365696,1.00268974,.00003048,0.0199,24.8211,189.7934,40.7253,0,U,39168,999,4737,0,0,0
SES-6,2013-026A,2026-07-07T11:50:31.562304,1.00270444,.00024773,0.0156,1.7534,99.5014,321.3352,0,U,39172,999,4792,0,-.246E-5,0
IRNSS-1A,2013-034A,2026-07-05T17:31:35.683968,1.00280420,.00178584,35.7606,63.6043,181.6646,356.4955,0,U,39199,999,4755,0,.68E-6,0
MUOS-2,2013-036A,2026-07-07T14:52:59.250144,1.00271119,.00521612,5.0351,45.5536,176.4985,98.7270,0,U,39206,999,4739,0,-.1E-7,0
ALPHASAT,2013-038A,2026-07-07T01:53:22.315200,1.00274018,.00024328,2.9984,1.1586,126.5431,210.5787,0,U,39215,999,4421,0,.147E-5,0
INSAT-3D,2013-038B,2026-07-07T14:38:39.559776,1.00272480,.0000512,1.9755,82.2905,58.9626,133.5122,0,U,39216,999,4728,0,-.325E-5,0
WGS F6 (USA 244),2013-041A,2026-07-06T16:34:22.999008,1.00272216,.00016243,0.0190,36.9691,186.5270,174.5993,0,U,39222,999,4625,0,.104E-5,0
ES'HAIL 1,2013-044A,2026-07-07T13:52:05.215296,1.00272227,.0002301,0.0468,0.7062,108.1587,50.1918,0,U,39233,999,4683,0,.158E-5,0
GSAT-7,2013-044B,2026-07-07T15:06:39.295008,1.00271400,.00029727,0.1306,90.4088,179.2047,316.5987,0,U,39234,999,4546,0,-.61E-6,0
AMOS-4,2013-045A,2026-07-07T12:20:38.202720,1.00272809,.00022054,0.0290,83.6135,355.2191,96.8118,0,U,39237,999,4716,0,.22E-6,0
AEHF-3 (USA 246),2013-050A,2026-07-07T13:36:59.542848,1.00269161,.00882826,5.3429,66.9993,187.6952,110.8470,0,U,39256,999,4585,0,.41E-6,0
