GSAT-10                 
1 38779U 12051B   26188.58922642 -.00000149  00000+0  00000+0 0  9999
2 38779   0.0400 241.9553 0007820 213.1322 125.5712  1.00269278 50306
INTELSAT 23 (IS-23)     
1 38867U 12057A   26188.05637558 -.00000270  00000+0  00000+0 0  9999
2 38867   0.0130  52.9192 0000404  98.8720 100.5402  1.00275567 50154
BEIDOU-2 G6             
1 38953U 12059A   26188.58939976 -.00000162  00000+0  00000+0 0  9994
2 38953   4.4698  73.3075 0009084 330.2599 178.1470  1.00268990 50118
LUCH-5B                 
1 38977U 12061A   26188.42689670 -.00000129  00000+0  00000+0 0  9992
2 38977  10.5244  49.6770 0003487 139.6998 233.4586  1.00271756 49814
YAMAL 300K              
1 38978U 12061B   26188.62407012  .00000086  00000+0  00000+0 0  9994
2 38978   0.0240 242.4904 0000319  15.3959  75.3223  1.00271742 49833
STAR ONE C3             
1 38991U 12062A   26188.55790471  .00000000  00000+0  00000+0 0  9992
2 38991   0.0230  32.5953 0002210  92.0416 286.7443  1.00271005 49969
EUTELSAT 21B            
1 38992U 12062B   26188.57705814  .00000145  00000+0  00000+0 0  9992
2 38992   0.0647 357.6983 0003209 108.8657  48.3001  1.00270555 50039
ECHOSTAR 16             
1 39008U 12065A   26188.46359683 -.00000267  00000+0  00000+0 0  9997
2 39008   0.0171  26.7817 0001962  81.3955 282.6582  1.00270487 49848
ZHONGXING-12            
1 39017U 12067A   26188.66141316 -.00000191  00000+0  00000+0 0  9999
2 39017   0.0482  93.6805 0002803   7.5505 150.0050  1.00270221 49719
EUTELSAT 70B            
1 39020U 12069A   26188.51545772 -.00000029  00000+0  00000+0 0  9993
2 39020   0.0631 343.6476 0003448 124.4042  73.4878  1.00273777 49717
YAMAL 402               
1 39022U 12070A   26188.66382778  .00000100  00000+0  00000+0 0  9997
2 39022   1.3141  83.9111 0003728  20.8542 114.7365  1.00272140 49605
SKYNET 5D               
1 39034U 12075A   26188.44067677  .00000114  00000+0  00000+0 0  9994
2 39034   0.0667   6.5395 0003687 109.3321  20.9384  1.00272144 49360
MEXSAT 3                
1 39035U 12075B   26188.55001801  .00000000  00000+0  00000+0 0  9998
2 39035   0.0198  30.0377 0001134  77.4373 261.2436  1.00267639  7252
TDRS 11                 
1 39070U 13004A   26188.63193392  .00000093  00000+0  00000+0 0  9998
2 39070   3.5507  31.5882 0004805  28.1571 279.0220  1.00276736 46890
AMAZONAS 3              
1 39078U 13006A   26188.46437184 -.00000267  00000+0  00000+0 0  9993
2 39078   0.0597 238.4121 0003257 272.7993 240.3816  1.00269034 45117
AZERSPACE 1             
1 39079U 13006B   26188.58191149  .00000148  00000+0  00000+0 0  9992
2 39079   0.0343 273.1811 0001869 229.4374  38.4076  1.00272399 49013
SBIRS GEO-2 (USA 241)   
1 39120U 13011A   26187.92130762 -.00000274  00000+0  00000+0 0  9997
2 39120   4.5312  52.5131 0002010  45.1363 109.1078  1.00271262 48733
EUTELSAT 117 WEST A     
1 39122U 13012A   26188.54967134  .00000002  00000+0  00000+0 0  9998
2 39122   0.0100   7.6014 0002762 103.4608 255.5219  1.00271681 48633
ANIK G1                 
1 39127U 13014A   26188.55149135 -.00000059  00000+0  00000+0 0  9992
2 39127   0.0193  40.2284 0001716  74.0038 262.5160  1.00271467 48455
ZHONGXING-11            
1 39157U 13020A   26188.67674859 -.00000275  00000+0  00000+0 0  9991
2 39157   0.0176  29.1323 0002506  52.3211 185.7332  1.00272605 48103
EUTELSAT 7B             
1 39163U 13022A   26188.57419812  .00000063  00000+0  00000+0 0  9999
2 39163   0.0640 355.7371 0003856  51.2229  92.2816  1.00271308 48156
WGS F5 (USA 243)        
1 39168U 13024A   26188.06334914  .00000000  00000+0  00000+0 0  9990
2 39168   0.0199  24.8211 0000304 189.7934  40.7253  1.00268974 47373
SES-6                   
1 39172U 13026A   26188.49342086 -.00000246  00000+0  00000+0 0  9996
2 39172   0.0156   1.7534 0002477  99.5014 321.3352  1.00270444 47927
IRNSS-1A                
1 39199U 13034A   26186.73027412  .00000068  00000+0  00000+0 0  9993
2 39199  35.7606  63.6043 0017858 181.6646 356.4955  1.00280420 47558
MUOS-2                  
1 39206U 13036A   26188.62013021 -.00000001  00000+0  00000+0 0  9993
2 39206   5.0351  45.5536 0052161 176.4985  98.7270  1.00271119 47397
ALPHASAT                
1 39215U 13038A   26188.07873050  .00000147  00000+0  00000+0 0  9990
2 39215   2.9984   1.1586 0002432 126.5431 210.5787  1.00274018 44212
INSAT-3D                
1 39216U 13038B   26188.61018009 -.00000325  00000+0  00000+0 0  9995
2 39216   1.9755  82.2905 0000512  58.9626 133.5122  1.00272480 47282
WGS F6 (USA 244)        
1 39222U 13041A   26187.69054397  .00000104  00000+0  00000+0 0  9997
2 39222   0.0190  36.9691 0001624 186.5270 174.5993  1.00272216 46252
ES'HAIL 1               
1 39233U 13044A   26188.57783814  .00000158  00000+0  00000+0 0  9992
2 39233   0.0468   0.7062 0002301 108.1587  50.1918  1.00272227 46839
GSAT-7                  
1 39234U 13044B   26188.62962147 -.00000061  00000+0  00000+0 0  9991
2 39234   0.1306  90.4088 0002972 179.2047 316.5987  1.00271400 45465
AMOS-4                  
1 39237U 13045A   26188.51433105  .00000022  00000+0  00000+0 0  9996
2 39237   0.0290  83.6135 0002205 355.2191  96.8118  1.00272809 47168
AEHF-3 (USA 246)        
1 39256U 13050A   26188.56735582  .00000041  00000+0  00000+0 0  9993
2 39256   5.3429  66.9993 0088282 187.6952 110.8470  1.00269161 45857
